"","formatted_address","city","district","location","level","wgs84_lng","wgs84_lat","name","amap_lng","amap_lat"
"1","江苏省南京市鼓楼区石头城遗址公园","南京市","鼓楼区","118.754756,32.050586","兴趣点",118.749531247744,32.052621815034,"石头城遗址公园",118.754756,32.050586
"2","江苏省南京市秦淮区景区","南京市","秦淮区","118.789494,32.020105","兴趣点",118.784302191641,32.0221610712926,"宝船厂遗址景区",118.789494,32.020105
"3","江苏省南京市鼓楼区乌龙潭公园","南京市","鼓楼区","118.766202,32.045926","兴趣点",118.76098227555,32.0479651067311,"乌龙潭公园",118.766202,32.045926
"4","江苏省南京市鼓楼区国防园","南京市","鼓楼区","118.754881,32.052144","兴趣点",118.749656123164,32.0541801830015,"国防园",118.754881,32.052144
"5","0","0","0","0","0",0,0,"幕燕滨江风貌区",0,0
"6","江苏省南京市江宁区南山湖","南京市","江宁区","118.581078,31.772531","村庄",118.576084978036,31.7746899468609,"南山湖景区",118.581078,31.772531
"7","江苏省南京市江宁区银杏湖景区","南京市","江宁区","118.703629,31.804116","兴趣点",118.698472923484,31.8061372454472,"银杏湖景区",118.703629,31.804116
"8","江苏省南京市江宁区方山风景区","南京市","江宁区","118.876113,31.895686","兴趣点",118.8710917514,31.8978555513402,"方山风景区",118.876113,31.895686
"9","江苏省南京市江宁区台湾创意农业旅游区","南京市","江宁区","118.662870,31.765601","兴趣点",118.657803212424,31.7676901977145,"江宁台湾创意农业旅游区",118.66287,31.765601
"10","江苏省南京市浦口区文化名人纪念馆","南京市","浦口区","118.619829,32.056625","兴趣点",118.614809227761,32.0588389440108,"求雨山文化名人纪念馆",118.619829,32.056625
"11","江苏省南京市浦口区老山森林公园","南京市","浦口区","118.618313,32.112742","兴趣点",118.613289603057,32.114969140152,"老山森林公园景区",118.618313,32.112742
"12","江苏省南京市浦口区雨发生态园","南京市","浦口区","118.540069,32.027930","兴趣点",118.534970250472,32.0300760016158,"雨发生态园",118.540069,32.02793
"13","江苏省南京市六合区冶山","南京市","六合区","118.968505,32.503401","乡镇",118.963322252563,32.5055459943102,"冶山国家矿山公园",118.968505,32.503401
"14","江苏省南京市六合区平山森林公园","南京市","六合区","118.844695,32.459991","兴趣点",118.839571518084,32.462180115311,"平山森林公园",118.844695,32.459991
"15","江苏省南京市溧水区傅家边","南京市","溧水区","119.017339,31.571161","村庄",119.012069642208,31.5730730879357,"傅家边农业科技观光园",119.017339,31.571161
"16","江苏省南京市溧水区天生桥风景区","南京市","溧水区","118.990778,31.645348","兴趣点",118.985597689803,31.6473385272684,"天生桥风景区",118.990778,31.645348
"17","江苏省南京市溧水区大金山风景区","南京市","溧水区","119.120580,31.692257","兴趣点",119.115146993942,31.6940456114569,"大金山风景区",119.12058,31.692257
"18","0","0","0","0","0",0,0,"万驰国际汽车体育公园",0,0
"19","江苏省南京市江宁区香草谷","南京市","江宁区","118.731879,31.847879","兴趣点",118.726680781337,31.8498759099087,"大塘金香草谷",118.731879,31.847879
"20","江苏省南京市浦口区水墨大埝","南京市","浦口区","118.598362,32.119688","兴趣点",118.593346811925,32.1219255318655,"水墨大埝旅游区",118.598362,32.119688
"21","江苏省无锡市滨湖区唐城","无锡市","滨湖区","120.244193,31.505492","兴趣点",120.239608928125,31.5074433383134,"唐城景区",120.244193,31.505492
"22","0","0","0","0","0",0,0,"龙头渚公园",0,0
"23","江苏省无锡市滨湖区龙寺生态园","无锡市","滨湖区","120.239532,31.447009","兴趣点",120.234947766648,31.4489695971918,"龙寺生态园",120.239532,31.447009
"24","江苏省无锡市新吴区新洲生态园","无锡市","新吴区","120.387084,31.523446","兴趣点",120.382383359756,31.5252130473829,"新洲生态园",120.387084,31.523446
"25","江苏省无锡市滨湖区生态景观园","无锡市","滨湖区","120.255135,31.458404","兴趣点",120.250563274338,31.4603635284763,"雪浪山生态景观园",120.255135,31.458404
"26","江苏省无锡市梁溪区秦邦宪故居","无锡市","梁溪区","120.301811,31.574660","兴趣点",120.297208655052,31.5765574386891,"秦邦宪故居",120.301811,31.57466
"27","江苏省无锡市新吴区钱伟长故居","无锡市","新吴区","120.512611,31.518760","兴趣点",120.508224739781,31.5207439396785,"钱穆钱伟长故居",120.512611,31.51876
"28","江苏省无锡市惠山区冯其庸学术馆","无锡市","惠山区","120.213912,31.689542","兴趣点",120.209261871898,31.6914644591354,"冯其庸学术馆",120.213912,31.689542
"29","江苏省无锡市宜兴市兴望农业休闲文化园","无锡市","宜兴市","119.554759,31.292637","兴趣点",119.5498199,31.2948017757573,"宜兴市兴望农业休闲文化园",119.554759,31.292637
"30","江苏省无锡市宜兴市阳山荡景区","无锡市","宜兴市","119.936226,31.410484","兴趣点",119.931574181751,31.4126191118999,"宜兴市阳山荡景区",119.936226,31.410484
"31","江苏省无锡市宜兴市","无锡市","宜兴市","119.823308,31.340637","区县",119.81847918498,31.3427211907859,"宜兴市华东百畅生态休闲度假园",119.823308,31.340637
"32","江苏省无锡市江阴市双泾生态园","无锡市","江阴市","120.200150,31.789301","兴趣点",120.195457176815,31.791215364949,"江阴市双泾生态园",120.20015,31.789301
"33","江苏省无锡市江阴市长泾","无锡市","江阴市","120.492419,31.759142","乡镇",120.487933511258,31.7610681110253,"江阴市长泾古镇文化旅游区",120.492419,31.759142
"34","江苏省无锡市惠山区锦绣园","无锡市","惠山区","120.220766,31.647844","兴趣点",120.21613408246,31.6497722939539,"锦绣园景区",120.220766,31.647844
"35","江苏省徐州市沛县沛县汉城景区","徐州市","沛县","116.929501,34.729974","兴趣点",116.924110768909,34.7311119040951,"沛县汉城景区",116.929501,34.729974
"36","江苏省徐州市泉山区滨湖公园","徐州市","泉山区","117.147619,34.246751","兴趣点",117.141783736102,34.2479109877707,"滨湖公园",117.147619,34.246751
"37","江苏省徐州市邳州市邳州博物馆","徐州市","邳州市","117.963214,34.329049","兴趣点",117.957661835603,34.330401456801,"邳州市博物馆",117.963214,34.329049
"38","江苏省徐州市泉山区泉山森林公园","徐州市","泉山区","117.161396,34.206448","兴趣点",117.155587166801,34.2076471213472,"泉山森林公园",117.161396,34.206448
"39","江苏省徐州市邳州市土山","徐州市","邳州市","117.851354,34.216783","兴趣点",117.845802298045,34.2182169688895,"邳州市土山古镇景区",117.851354,34.216783
"40","江苏省徐州市沛县汉之源景区","徐州市","沛县","116.938550,34.742817","兴趣点",116.933137735151,34.7439292305084,"沛县汉之源景区",116.93855,34.742817
"41","江苏省徐州市铜山区张伯英艺术馆","徐州市","铜山区","117.153132,34.212167","兴趣点",117.147308830551,34.2133492654204,"张伯英艺术馆",117.153132,34.212167
"42","江苏省徐州市云龙区李可染艺术馆","徐州市","云龙区","117.195306,34.256727","兴趣点",117.189550307066,34.2579692171568,"李可染艺术馆",117.195306,34.256727
"43","江苏省徐州市沛县沛公园景区","徐州市","沛县","116.923796,34.773415","兴趣点",116.918412303649,34.7745157970142,"沛县沛公园景区",116.923796,34.773415
"44","江苏省徐州市邳州市烈士","徐州市","邳州市","117.801414,34.287234","乡镇",117.79572684889,34.2885501124596,"李超时烈士纪念馆",117.801414,34.287234
"45","江苏省徐州市新沂市新沂市博物馆","徐州市","新沂市","118.356577,34.358256","兴趣点",118.350901056943,34.3593372425457,"新沂市博物馆",118.356577,34.358256
"46","江苏省徐州市铜山区无名山","徐州市","铜山区","117.179930,34.178866","村庄",117.174156688044,34.1801091095131,"无名山景区",117.17993,34.178866
"47","江苏省徐州市邳州市沙沟湖水杉公园","徐州市","邳州市","117.995743,34.341034","兴趣点",117.990095093801,34.3422884820861,"邳州市沙沟湖水杉公园",117.995743,34.341034
"48","江苏省徐州市泉山区休闲农庄","徐州市","泉山区","117.127125,34.269912","兴趣点",117.121263036829,34.2710337839149,"桃花源休闲农庄",117.127125,34.269912
"49","江苏省徐州市邳州市","徐州市","邳州市","118.012531,34.338888","区县",118.006830803916,34.3400928227218,"邳州市古栗园景区",118.012531,34.338888
"50","江苏省徐州市贾汪区卧龙泉","徐州市","贾汪区","117.384590,34.484153","兴趣点",117.378584825462,34.4851424155191,"卧龙泉生态园",117.38459,34.484153
"51","江苏省徐州市云龙区竹林寺","徐州市","云龙区","117.218154,34.249863","村庄",117.212427591213,34.2511403173718,"竹林寺景区",117.218154,34.249863
"52","江苏省徐州市泉山区徐州艺术馆","徐州市","泉山区","117.171100,34.247668","兴趣点",117.165303936511,34.2488699291171,"徐州艺术馆",117.1711,34.247668
"53","江苏省徐州市铜山区喻继高艺术馆","徐州市","铜山区","117.269404,34.146166","兴趣点",117.263679676004,34.1474897235654,"喻继高艺术馆",117.269404,34.146166
"54","江苏省徐州市丰县大观园","徐州市","丰县","116.637067,34.546859","兴趣点",116.631814622025,34.5481496849248,"丰县果都大观园景区",116.637067,34.546859
"55","江苏省徐州市邳州市王杰纪念馆","徐州市","邳州市","118.000246,34.268576","兴趣点",117.994591379825,34.269849845895,"邳州市王杰纪念馆",118.000246,34.268576
"56","江苏省徐州市新沂市城南馨园","徐州市","新沂市","118.340193,34.347657","兴趣点",118.334546586313,34.3487723051937,"新沂市城南馨园景区",118.340193,34.347657
"57","江苏省徐州市铜山区娇山湖景区","徐州市","铜山区","117.152903,34.161341","兴趣点",117.147084729284,34.162539825767,"娇山湖景区",117.152903,34.161341
"58","0","0","0","0","0",0,0,"燕山文化景区",0,0
"59","江苏省徐州市邳州市","徐州市","邳州市","118.012531,34.338888","区县",118.006830803916,34.3400928227218,"邳州市淮海战役碾庄战斗纪念馆",118.012531,34.338888
"60","江苏省徐州市邳州市禹王山","徐州市","邳州市","117.818756,34.498980","村庄",117.813090222692,34.5002065217557,"禹王山抗日阻击战遗址纪念园",117.818756,34.49898
"61","0","0","0","0","0",0,0,"小窑头烈士陵园",0,0
"62","江苏省徐州市沛县安国","徐州市","沛县","116.833458,34.831688","兴趣点",116.828033142718,34.8326594970913,"安国三诸侯文化园",116.833458,34.831688
"63","江苏省徐州市泉山区淮海文博园","徐州市","泉山区","117.234148,34.214791","兴趣点",117.228434590953,34.2160951192597,"淮海文博园",117.234148,34.214791
"64","江苏省常州市金坛区华罗庚公园","常州市","金坛区","119.580937,31.740987","兴趣点",119.5760125231,31.7431263391438,"金坛市华罗庚公园",119.580937,31.740987
"65","江苏省常州市新北区河海街道中心公园","常州市","新北区","119.982007,31.826408","兴趣点",119.977236316551,31.8284290004252,"新区中心公园",119.982007,31.826408
"66","0","0","0","0","0",0,0,"艺林园景区",0,0
"67","江苏省常州市钟楼区运河五号创意街区","常州市","钟楼区","119.936685,31.788206","开发区",119.932000025167,31.7903260554946,"运河五号创意街区",119.936685,31.788206
"68","江苏省常州市武进区宋剑湖生态旅游区","常州市","武进区","120.048136,31.702480","兴趣点",120.043219798996,31.7042991009203,"武进宋剑湖生态旅游区",120.048136,31.70248
"69","江苏省常州市新北区艺博园","常州市","新北区","119.921394,31.848190","兴趣点",119.916711816004,31.8503392142495,"华夏艺博园",119.921394,31.84819
"70","江苏省常州市钟楼区海洋世界","常州市","钟楼区","119.955294,31.770400","兴趣点",119.950585809618,31.772481839705,"金鹰海洋世界",119.955294,31.7704
"71","江苏省常州市溧阳市","常州市","溧阳市","119.484211,31.416911","区县",119.479006239572,31.4188449934119,"溧阳市史候祠",119.484211,31.416911
"72","江苏省苏州市虎丘区何山公园","苏州市","虎丘区","120.541264,31.301569","兴趣点",120.536996113562,31.3036869428679,"何山公园",120.541264,31.301569
"73","江苏省苏州市相城区湿地公园","苏州市","相城区","120.583052,31.407821","兴趣点",120.578863479725,31.4099682110846,"荷塘月色湿地公园",120.583052,31.407821
"74","江苏省苏州市相城区中国花卉植物园","苏州市","相城区","120.603276,31.419570","兴趣点",120.599096585424,31.4217181847085,"中国花卉植物园",120.603276,31.41957
"75","江苏省苏州市相城区中国珍珠宝石城","苏州市","相城区","120.667442,31.467439","兴趣点",120.663174997028,31.4694936926747,"中国珍珠宝石城",120.667442,31.467439
"76","江苏省苏州市虎丘区大白荡城市生态公园","苏州市","虎丘区","120.514081,31.351491","兴趣点",120.509714362471,31.3535181897232,"大白荡城市生态公园",120.514081,31.351491
"77","江苏省苏州市姑苏区盛泽","苏州市","姑苏区","120.628603,31.316561","兴趣点",120.624415809602,31.3187226919998,"相城盛泽湖月季园",120.628603,31.316561
"78","江苏省苏州市张家港市东渡苑景区","苏州市","张家港市","120.628932,31.857571","兴趣点",120.624699784339,31.8596999568792,"张家港市东渡苑景区",120.628932,31.857571
"79","江苏省苏州市张家港市梁丰生态园","苏州市","张家港市","120.572935,31.853549","兴趣点",120.568696351919,31.8556835714147,"张家港市梁丰生态园",120.572935,31.853549
"80","江苏省苏州市相城区阳澄湖景区","苏州市","相城区","120.817308,31.471107","兴趣点",120.813012861028,31.4731299402446,"昆山市巴城阳澄湖景区",120.817308,31.471107
"81","江苏省苏州市吴江区青少年科技文化活动中心","苏州市","吴江区","120.641953,31.144342","兴趣点",120.637760897124,31.1465640005137,"吴江市青少年科技文化活动中心",120.641953,31.144342
"82","江苏省苏州市吴江区圆通寺","苏州市","吴江区","120.630994,31.147098","村庄",120.626817666417,31.1493341780404,"吴江市圆通寺景区",120.630994,31.147098
"83","江苏省苏州市太仓市太仓公园","苏州市","太仓市","121.140653,31.438194","兴趣点",121.136051996641,31.4399954800623,"太仓市太仓公园(山园）",121.140653,31.438194
"84","江苏省苏州市太仓市南园公园","苏州市","太仓市","121.116888,31.441735","兴趣点",121.112258307245,31.4435080521653,"太仓市南园公园",121.116888,31.441735
"85","0","0","0","0","0",0,0,"吴江市莺湖文化旅游区",0,0
"86","江苏省苏州市昆山市昆山市城市生态森林公园","苏州市","昆山市","120.910029,31.394288","兴趣点",120.905859772212,31.3964375664174,"昆山市城市生态森林公园景区",120.910029,31.394288
"87","江苏省苏州市张家港市农扬常阴沙","苏州市","张家港市","120.764568,31.872504","兴趣点",120.760158424254,31.8744722715828,"张家港市常阴沙生态农业旅游区",120.764568,31.872504
"88","江苏省苏州市昆山市","苏州市","昆山市","120.980737,31.385598","区县",120.976410452506,31.3876225209341,"昆山市五谷丰灯景区",120.980737,31.385598
"89","江苏省南通市崇川区南通城市博物馆","南通市","崇川区","120.868338,32.013787","兴趣点",120.864096991835,32.0159433251167,"城市博物馆",120.868338,32.013787
"90","江苏省南通市崇川区军山景区","南通市","崇川区","120.902681,31.939030","兴趣点",120.898469266903,31.9411916266731,"军山景区",120.902681,31.93903
"91","江苏省南通市崇川区休闲农庄","南通市","崇川区","120.938720,31.882020","兴趣点",120.934472984658,31.8841387075906,"世外桃园休闲农庄",120.93872,31.88202
"92","江苏省南通市港闸区城市绿谷","南通市","港闸区","120.787531,32.027167","兴趣点",120.783133318451,32.0291909377237,"城市绿谷景区",120.787531,32.027167
"93","江苏省南通市通州区南山寺","南通市","通州区","121.084360,32.055453","兴趣点",121.079678176343,32.0572720857378,"南山寺",121.08436,32.055453
"94","江苏省南通市通州区忠孝文化园","南通市","通州区","121.197180,32.103990","兴趣点",121.192629926328,32.1059503135179,"忠孝文化园",121.19718,32.10399
"95","江苏省南通市如皋市定慧寺","南通市","如皋市","120.571963,32.389413","兴趣点",120.567677671333,32.3916269843498,"如皋市定慧寺",120.571963,32.389413
"96","江苏省南通市如皋市金岛生态园","南通市","如皋市","120.621962,32.057537","兴趣点",120.617720527248,32.0597179004201,"金岛生态园",120.621962,32.057537
"97","江苏省南通市如皋市法宝禅寺","南通市","如皋市","120.751882,32.243666","兴趣点",120.747435671794,32.2457036337975,"如皋市白蒲法宝禅寺",120.751882,32.243666
"98","江苏省南通市如皋市东方大寿星园","南通市","如皋市","120.544626,32.362251","兴趣点",120.540279149001,32.3644195099649,"如皋市东方大寿星园",120.544626,32.362251
"99","江苏省南通市如皋市药用植物园","南通市","如皋市","120.614691,32.054099","兴趣点",120.610455387557,32.0562853054993,"长江药用植物园",120.614691,32.054099
"100","江苏省南通市如皋市金岛生态园","南通市","如皋市","120.621962,32.057537","兴趣点",120.617720527248,32.0597179004201,"金岛生态园",120.621962,32.057537
"101","江苏省南通市如皋市","南通市","如皋市","120.574946,32.370557","区县",120.570666962453,32.3727751412618,"如皋市中华长寿文化谷",120.574946,32.370557
"102","江苏省南通市如皋市龙游","南通市","如皋市","120.607880,32.341732","兴趣点",120.6036231508,32.3439599077596,"如皋市龙游湖风景区",120.60788,32.341732
"103","江苏省南通市海安县七战七捷纪念馆","南通市","海安县","120.474231,32.535657","兴趣点",120.46960810535,32.537603876586,"海安县苏中七战七捷纪念馆",120.474231,32.535657
"104","江苏省南通市海安县广福禅寺","南通市","海安县","120.463792,32.557070","兴趣点",120.459130134886,32.5589837803847,"海安县广福禅寺",120.463792,32.55707
"105","江苏省南通市海安县海安县博物馆","南通市","海安县","120.463708,32.547211","兴趣点",120.459046731209,32.5491273318253,"海安县博物馆",120.463708,32.547211
"106","江苏省南通市海安县七星湖生态园","南通市","海安县","120.501180,32.528917","兴趣点",120.49666229077,32.5309442259796,"海安县七星湖生态园",120.50118,32.528917
"107","江苏省南通市海安县","南通市","海安县","120.467370,32.533549","区县",120.462722598262,32.5354781871145,"海安县万缘宝塔",120.46737,32.533549
"108","江苏省南通市海门市张謇纪念馆","南通市","海门市","121.253374,31.933153","兴趣点",121.248887287139,31.935122541536,"海门市张謇纪念馆",121.253374,31.933153
"109","江苏省南通市启东市黄金海滩","南通市","启东市","121.926790,31.745801","兴趣点",121.922633800559,31.7478977298373,"启东市市黄金海滩景区",121.92679,31.745801
"110","江苏省南通市如东县小洋口风景区","南通市","如东县","121.042940,32.561660","兴趣点",121.03829351767,32.5635470213094,"小洋口风景区",121.04294,32.56166
"111","江苏省南通市如东县如东","南通市","如东县","121.189870,32.346320","兴趣点",121.185284891989,32.3482948278289,"如东市洋口港景区",121.18987,32.34632
"112","江苏省南通市如东县如东","南通市","如东县","121.189870,32.346320","兴趣点",121.185284891989,32.3482948278289,"如东市县国清园景区",121.18987,32.34632
"113","江苏省南通市港闸区探险王国","南通市","港闸区","120.858152,32.039860","兴趣点",120.853892786797,32.0420079163732,"探险王国景区",120.858152,32.03986
"114","江苏省连云港市海州区民主路","连云港市","海州区","119.174431,34.604324","道路",119.168807898842,34.6052788527152,"民主路文化旅游区",119.174431,34.604324
"115","江苏省连云港市赣榆区抗日山","连云港市","赣榆区","118.854555,34.878256","热点商圈",118.849215942402,34.8791782408609,"赣榆县抗日山景区",118.854555,34.878256
"116","江苏省连云港市连云区船山飞瀑景区","连云港市","连云区","119.448080,34.693830","兴趣点",119.442431279972,34.694650915374,"宿城船山飞瀑景区",119.44808,34.69383
"117","0","0","0","0","0",0,0,"赣榆县海州湾旅游度假区",0,0
"118","0","0","0","0","0",0,0,"赣榆县和安湖湿地公园景区",0,0
"119","江苏省连云港市赣榆区徐福村","连云港市","赣榆区","119.078793,35.003735","村庄",119.073026644622,35.0041947685006,"赣榆县徐福泊船山景区",119.078793,35.003735
"120","江苏省连云港市赣榆区夹谷山景区","连云港市","赣榆区","118.855995,34.877945","兴趣点",118.850658621115,34.8788698734535,"夹谷山景区",118.855995,34.877945
"121","江苏省连云港市海州区海州","连云港市","海州区","119.136469,34.571651","兴趣点",119.130770326482,34.5725670776575,"海州湾海洋乐园",119.136469,34.571651
"122","0","0","0","0","0",0,0,"夹谷圣境景区",0,0
"123","0","0","0","0","0",0,0,"孔雀沟景区",0,0
"124","江苏省连云港市连云区云龙涧原生态景区","连云港市","连云区","119.328773,34.674137","兴趣点",119.323146782558,34.6750212797585,"云龙涧原生态景区",119.328773,34.674137
"125","江苏省连云港市东海县青松岭森林公园","连云港市","东海县","118.565914,34.698234","兴趣点",118.56062294956,34.6993669907238,"青松岭森林公园",118.565914,34.698234
"126","0","0","0","0","0",0,0,"御园景区",0,0
"127","江苏省连云港市灌云县灌云博物馆","连云港市","灌云县","119.231033,34.278654","兴趣点",119.225544235095,34.279895915176,"灌云县博物馆",119.231033,34.278654
"128","江苏省连云港市灌云县灌云县烈士陵园","连云港市","灌云县","119.245668,34.307069","兴趣点",119.240184855529,34.3083044626962,"灌云县烈士陵园",119.245668,34.307069
"129","江苏省连云港市灌云县潮河湾生态园","连云港市","灌云县","119.460632,34.287878","兴趣点",119.455063575727,34.289007971385,"灌云县潮河湾生态园",119.460632,34.287878
"130","江苏省连云港市灌南县","连云港市","灌南县","119.315651,34.087135","区县",119.310113220951,34.0883758108517,"灌南县人民革命纪念馆",119.315651,34.087135
"131","江苏省淮安市清江浦区苏皖边区政府旧址纪念馆","淮安市","清江浦区","119.027762,33.587970","兴趣点",119.022263273066,33.5893379794393,"苏皖边区政府旧址纪念馆",119.027762,33.58797
"132","江苏省淮安市清江浦区清晏园","淮安市","清江浦区","119.024543,33.585241","兴趣点",119.019055447002,33.5866189217021,"清晏园",119.024543,33.585241
"133","江苏省淮安市清江浦区周恩来童年读书处","淮安市","清江浦区","119.017309,33.588101","兴趣点",119.011846520337,33.5894984665998,"周恩来童年读书处",119.017309,33.588101
"134","江苏省淮安市清江浦区钵池山公园","淮安市","清江浦区","119.060181,33.600449","兴趣点",119.054591145403,33.60173925451,"钵池山景区",119.060181,33.600449
"135","江苏省淮安市涟水县华夏云锦","淮安市","涟水县","119.301234,33.908150","兴趣点",119.295742514335,33.9094578008786,"涟水县华夏云锦艺术馆",119.301234,33.90815
"136","江苏省淮安市淮阴区韩信故里景区","淮安市","淮阴区","118.938840,33.534235","兴趣点",118.933639130209,33.5358624981635,"韩信故里景区",118.93884,33.534235
"137","江苏省淮安市淮安区日月洲生态园","淮安市","淮安区","119.188887,33.651918","兴趣点",119.18339369073,33.6532784159384,"日月洲生态园景区",119.188887,33.651918
"138","江苏省淮安市金湖县尧帝古城景区","淮安市","金湖县","119.021370,32.998761","兴趣点",119.015951303317,33.0005019174461,"金湖县尧帝古城景区",119.02137,32.998761
"139","江苏省淮安市盱眙县明祖陵村","淮安市","盱眙县","118.447654,33.080064","村庄",118.442141071232,33.0816810737766,"盱眙县明祖陵",118.447654,33.080064
"140","江苏省淮安市洪泽区森林公园","淮安市","洪泽区","119.044729,33.318584","兴趣点",119.039205050106,33.3200457854467,"白马湖森林公园",119.044729,33.318584
"141","江苏省淮安市洪泽区西顺河","淮安市","洪泽区","118.890532,33.380584","乡镇",118.885384496231,33.3823169465291,"洪泽西顺河二十六烈士陵园",118.890532,33.380584
"142","江苏省盐城市亭湖区盐城市科技馆","盐城市","亭湖区","120.167860,33.345701","兴趣点",120.162930401103,33.3471487554454,"盐城市科技馆",120.16786,33.345701
"143","江苏省盐城市亭湖区护国永宁禅寺","盐城市","亭湖区","120.141752,33.401669","兴趣点",120.136740155755,33.4030389712228,"护国永宁禅寺",120.141752,33.401669
"144","江苏省盐城市盐都区世纪公园","盐城市","盐都区","120.158391,33.333378","兴趣点",120.15343355855,33.3348156647295,"世纪公园",120.158391,33.333378
"145","江苏省盐城市东台市江苏永丰林农业生态园","盐城市","东台市","120.752360,32.865273","兴趣点",120.747859228678,32.8671384558945,"江苏永丰林农业生态园",120.75236,32.865273
"146","江苏省盐城市大丰区东方湿地公园","盐城市","大丰区","120.480557,33.214302","兴趣点",120.475896830451,33.2158729245146,"大丰东方湿地公园",120.480557,33.214302
"147","江苏省盐城市大丰区大丰","盐城市","大丰区","120.783069,33.205388","兴趣点",120.778561654731,33.2070377078958,"大丰丹顶鹤珍禽园景区",120.783069,33.205388
"148","江苏省盐城市射阳县","盐城市","射阳县","120.258053,33.774806","区县",120.253275168705,33.7761731265029,"射阳县后羿文化园景区",120.258053,33.774806
"149","江苏省盐城市阜宁县庙湾古城","盐城市","阜宁县","119.801632,33.776778","兴趣点",119.796514766453,33.7781999814059,"阜宁县庙湾古城景区",119.801632,33.776778
"150","江苏省盐城市建湖县九龙口风景区","盐城市","建湖县","119.606856,33.399631","兴趣点",119.601798905439,33.4013423375945,"建湖县九龙口风景区",119.606856,33.399631
"151","江苏省盐城市阜宁县铁军纪念馆","盐城市","阜宁县","119.798270,33.786308","兴趣点",119.793142633751,33.7877222248631,"阜宁县铁军纪念馆",119.79827,33.786308
"152","江苏省盐城市东台市","盐城市","东台市","120.320331,32.868440","区县",120.315587812976,32.8702308979925,"东台市甘港旅游景区",120.320331,32.86844
"153","江苏省盐城市东台市安丰","盐城市","东台市","120.401990,32.735416","乡镇",120.397183784914,32.737176771749,"东台市安丰古街",120.40199,32.735416
"154","江苏省盐城市建湖县西塘河","盐城市","建湖县","119.793243,33.569265","村庄",119.78812347322,33.5707417048737,"建湖县西塘河景区",119.793243,33.569265
"155","江苏省盐城市大丰区大丰","盐城市","大丰区","120.783069,33.205388","兴趣点",120.778561654731,33.2070377078958,"大丰中华水浒园",120.783069,33.205388
"156","江苏省盐城市盐都区郝氏故里","盐城市","盐都区","119.979166,33.157797","兴趣点",119.974281707266,33.1595346503972,"盐都郝氏故里旅游景区",119.979166,33.157797
"157","0","0","0","0","0",0,0,"亭湖千鹤湾温泉风情小镇",0,0
"158","江苏省盐城市阜宁县盘龙古寺","盐城市","阜宁县","119.915581,33.818004","兴趣点",119.910719875277,33.8195484375518,"阜宁县盘龙古寺",119.915581,33.818004
"159","江苏省扬州市广陵区凤凰岛生态旅游区","扬州市","广陵区","119.499129,32.495155","兴趣点",119.493882249552,32.4971996701611,"凤凰岛生态旅游区",119.499129,32.495155
"160","江苏省扬州市邗江区史可法纪念馆","扬州市","邗江区","119.439795,32.401391","兴趣点",119.434356834311,32.4032987810293,"史可法纪念馆",119.439795,32.401391
"161","江苏省扬州市广陵区吴道台宅第","扬州市","广陵区","119.452638,32.394112","兴趣点",119.447233843866,32.3960445943367,"吴道台宅第",119.452638,32.394112
"162","江苏省扬州市宝应县宝应县纵棹园","扬州市","宝应县","119.315725,33.234998","兴趣点",119.310272769173,33.2365611952172,"宝应县纵棹园",119.315725,33.234998
"163","江苏省扬州市仪征市仪征博物馆","扬州市","仪征市","119.175522,32.269213","兴趣点",119.170134666425,32.2711904457204,"仪征市博物馆",119.175522,32.269213
"164","江苏省扬州市高邮市镇国寺","扬州市","高邮市","119.430497,32.772113","村庄",119.42500358365,32.7738881582817,"高邮市镇国寺",119.430497,32.772113
"165","江苏省扬州市高邮市文游台","扬州市","高邮市","119.462479,32.795746","村庄",119.457066346333,32.7975681874084,"高邮市文游台",119.462479,32.795746
"166","江苏省扬州市仪征市红山体育公园","扬州市","仪征市","119.054069,32.334549","兴趣点",119.048617512589,32.3364760922831,"仪征市红山体育公园",119.054069,32.334549
"167","江苏省扬州市宝应县宁国寺","扬州市","宝应县","119.315170,33.232265","村庄",119.309719166376,33.23383105012,"宝应县宁国寺景区",119.31517,33.232265
"168","0","0","0","0","0",0,0,"陈园景区",0,0
"169","江苏省扬州市江都区开元寺","扬州市","江都区","119.687774,32.360017","村庄",119.682725727097,32.3621408580371,"江都开元寺景区",119.687774,32.360017
"170","0","0","0","0","0",0,0,"江都朴园景区",0,0
"171","江苏省扬州市邗江区润扬森林公园","扬州市","邗江区","119.381800,32.234990","兴趣点",119.376333787354,32.236871755938,"润扬森林公园",119.3818,32.23499
"172","0","0","0","0","0",0,0,"江都自在公园",0,0
"173","江苏省扬州市仪征市","扬州市","仪征市","119.184766,32.272258","区县",119.179398677243,32.2742528193899,"仪征市陈集孔雀山生态体育公园",119.184766,32.272258
"174","江苏省扬州市宝应县楚甸公园","扬州市","宝应县","119.405738,33.347623","兴趣点",119.400158704754,33.3489994655931,"宝应县曹甸楚甸公园",119.405738,33.347623
"175","江苏省镇江市扬中市扬中","镇江市","扬中市","119.797635,32.234831","兴趣点",119.792652238614,32.2369226311871,"扬中中国职业装博览馆",119.797635,32.234831
"176","江苏省镇江市句容市江苏禾木农博园","镇江市","句容市","119.252156,32.010664","兴趣点",119.246897943723,32.0126824823099,"江苏禾木农博园",119.252156,32.010664
"177","江苏省镇江市丹阳市中国(丹阳)眼镜城","镇江市","丹阳市","119.590885,32.001361","兴趣点",119.585948923573,32.003556172567,"中国（丹阳）眼镜城",119.590885,32.001361
"178","江苏省镇江市句容市九龙山庄","镇江市","句容市","119.246314,31.885575","兴趣点",119.241066984409,31.8875651925129,"句容市九龙山庄",119.246314,31.885575
"179","江苏省镇江市润州区规划展示馆","镇江市","润州区","119.425727,32.184139","兴趣点",119.420282603472,32.1860171946074,"镇江市规划展示馆",119.425727,32.184139
"180","江苏省镇江市句容市","镇江市","句容市","119.168695,31.944999","区县",119.163323274288,31.9469034648162,"句容市神牛红木艺术馆",119.168695,31.944999
"181","江苏省镇江市句容市怡景湾度假村","镇江市","句容市","119.259832,31.916178","兴趣点",119.254581303882,31.9181730378175,"句容市怡景湾度假村景区",119.259832,31.916178
"182","江苏省镇江市句容市岩藤农场","镇江市","句容市","119.208320,31.774296","兴趣点",119.203045439087,31.7762356457199,"句容市岩藤农场景区",119.20832,31.774296
"183","0","0","0","0","0",0,0,"新区城市中央公园",0,0
"184","江苏省镇江市丹徒区橘江里景区","镇江市","丹徒区","119.593140,32.212975","兴趣点",119.588186733177,32.215211859334,"江心洲橘江里景区",119.59314,32.212975
"185","江苏省镇江市扬中市园博园","镇江市","扬中市","119.845461,32.195905","兴趣点",119.84062321219,32.1980774272257,"扬中市园博园",119.845461,32.195905
"186","江苏省镇江市句容市红木艺术馆","镇江市","句容市","119.307428,31.799447","兴趣点",119.302129950727,31.8013640702856,"茅山红木艺术馆",119.307428,31.799447
"187","江苏省泰州市泰兴市新四军黄桥战役纪念馆","泰州市","泰兴市","120.231265,32.242259","兴趣点",120.226599896572,32.2442980481623,"泰兴市新四军黄桥战役纪念馆",120.231265,32.242259
"188","江苏省泰州市高港区高港","泰州市","高港区","119.881717,32.318822","热点商圈",119.876958080363,32.3210546112905,"高港引江河风景区",119.881717,32.318822
"189","江苏省泰州市海陵区泰山公园","泰州市","海陵区","119.907823,32.485254","兴趣点",119.903081426649,32.4874810565366,"泰山公园",119.907823,32.485254
"190","江苏省泰州市海陵区光孝律寺","泰州市","海陵区","119.911016,32.490669","兴趣点",119.906275526621,32.4928939209803,"光孝律寺",119.911016,32.490669
"191","江苏省泰州市高港区中国人民解放军海军诞生地纪念馆","泰州市","高港区","119.976868,32.425262","兴趣点",119.972056409947,32.4273806212486,"中国人民解放军海军诞生地纪念馆",119.976868,32.425262
"192","江苏省泰州市泰兴市","泰州市","泰兴市","120.051744,32.171854","区县",120.046779812503,32.1737550397696,"泰兴市中华红枫园景区",120.051744,32.171854
"193","江苏省泰州市姜堰区溱湖湿地农业生态园","泰州市","姜堰区","120.067903,32.612581","兴趣点",120.062880683034,32.6144211866524,"姜堰市溱湖湿地农业生态园景区",120.067903,32.612581
"194","江苏省泰州市靖江市","泰州市","靖江市","120.277138,31.982751","区县",120.272521525899,31.984733549232,"靖江市牧城景区",120.277138,31.982751
"195","江苏省泰州市兴化市沙沟","泰州市","兴化市","119.727824,33.106676","村庄",119.722668880401,33.1084013171902,"兴化市沙沟古镇",119.727824,33.106676
"196","江苏省泰州市泰兴市银杏公园","泰州市","泰兴市","119.950100,32.310117","兴趣点",119.945352548663,32.3123060632502,"泰兴市国家古银杏公园",119.9501,32.310117
"197","江苏省泰州市海陵区麒麟湾","泰州市","海陵区","119.893266,32.540079","兴趣点",119.888505609342,32.5422930036453,"麒麟湾景区",119.893266,32.540079
"198","江苏省泰州市兴化市","泰州市","兴化市","119.852541,32.910459","区县",119.847658652872,32.9124484967604,"兴化市施耐庵文化园",119.852541,32.910459
"199","江苏省泰州市泰兴市小南湖风景区","泰州市","泰兴市","120.282655,32.211363","兴趣点",120.278015464753,32.2133846348982,"泰兴市黄桥小南湖风景区",120.282655,32.211363
"200","江苏省泰州市兴化市湿地公园","泰州市","兴化市","119.833238,32.951792","兴趣点",119.828294177588,32.9537192229705,"兴化市乌巾荡湿地公园",119.833238,32.951792
"201","江苏省泰州市泰兴市庆云禅寺","泰州市","泰兴市","119.995179,32.162545","兴趣点",119.990344366514,32.1645978895014,"泰兴市庆云禅寺",119.995179,32.162545
"202","江苏省泰州市高港区","泰州市","高港区","119.881717,32.318822","区县",119.876958080363,32.3210546112905,"高港区白马文化旅游区",119.881717,32.318822
"203","江苏省宿迁市宿城区宿北大战纪念馆","宿迁市","宿城区","118.299103,33.960271","兴趣点",118.293570505083,33.9615881309883,"宿北大战纪念馆",118.299103,33.960271
"204","江苏省宿迁市宿城区宿迁市博物馆","宿迁市","宿城区","118.298794,33.939143","兴趣点",118.293264096606,33.9404652573768,"宿迁市博物馆",118.298794,33.939143
"205","江苏省宿迁市宿城区古黄河水景公园","宿迁市","宿城区","118.270705,33.966874","兴趣点",118.265201426935,33.9682243835108,"古黄河水景公园",118.270705,33.966874
"206","江苏省宿迁市泗洪县柳山湖景区","宿迁市","泗洪县","118.238249,33.359515","兴趣点",118.23279833375,33.3610862218294,"泗洪县柳山湖景区",118.238249,33.359515
"207","江苏省宿迁市泗洪县洪泽湖","宿迁市","泗洪县","118.216423,33.457904","热点商圈",118.210931498207,33.4594039842682,"泗洪县洪泽湖森林公园",118.216423,33.457904
"208","江苏省宿迁市泗阳县","宿迁市","泗阳县","118.703038,33.723140","区县",118.697701411809,33.7245880131105,"泗阳县南园",118.703038,33.72314
"209","江苏省宿迁市泗阳县","宿迁市","泗阳县","118.703038,33.723140","区县",118.697701411809,33.7245880131105,"泗阳县奥林匹克公园",118.703038,33.72314
"210","江苏省宿迁市泗洪县穆墩岛村","宿迁市","泗洪县","118.502639,33.289378","村庄",118.497292323619,33.2909982265452,"泗洪县穆墩岛景区",118.502639,33.289378
"211","江苏省宿迁市宿城区印象黄河景区","宿迁市","宿城区","118.239694,33.969786","兴趣点",118.234184115004,33.9711422915762,"印象黄河景区",118.239694,33.969786
"212","0","0","0","0","0",0,0,"欢乐岛景区",0,0
"213","0","0","0","0","0",0,0,"克拉嗨谷景区",0,0
"214","江苏省宿迁市宿城区中国粮食博物馆","宿迁市","宿城区","118.316107,33.891304","兴趣点",118.310552745111,33.892606562015,"中国粮食博物馆",118.316107,33.891304
"215","江苏省宿迁市泗阳县棉花博物馆","宿迁市","泗阳县","118.681739,33.685771","兴趣点",118.676450243644,33.6872672827123,"泗阳棉花博物馆",118.681739,33.685771
"216","江苏省宿迁市泗洪县水利","宿迁市","泗洪县","118.201779,33.442099","乡镇",118.19625826215,33.4435870475577,"水利遗址博物馆",118.201779,33.442099
"217","0","0","0","0","0",0,0,"宿豫民防体验园",0,0
"218","江苏省宿迁市泗洪县稻米文化馆","宿迁市","泗洪县","118.269323,33.364959","兴趣点",118.263879789602,33.3665221339815,"泗洪稻米文化馆",118.269323,33.364959
"219","0","0","0","0","0",0,0,"朱瑞红色文化旅游区",0,0
"220","江苏省宿迁市泗洪县湿地温泉度假村","宿迁市","泗洪县","118.372890,33.264891","兴趣点",118.367303641012,33.2663534876673,"泗洪洪泽湖湿地温泉度假村",118.37289,33.264891
"221","0","0","0","0","0",0,0,"乾隆江南酒业文化旅游区",0,0
"222","0","0","0","0","0",0,0,"泗阳植物园",0,0
"223","江苏省宿迁市沭阳县绿苑花卉园","宿迁市","沭阳县","118.664612,34.181514","兴趣点",118.65931322206,34.1829171585892,"沭阳县苏北花卉园景区",118.664612,34.181514
"224","江苏省宿迁市沭阳县南湖公园","宿迁市","沭阳县","118.756042,34.092905","兴趣点",118.750620655788,34.0942255320664,"沭阳县南湖公园旅游景区",118.756042,34.092905
"225","0","0","0","0","0",0,0,"森林摩尔艺术旅游区",0,0
"226","江苏省南京市栖霞区燕子矶公园","南京市","栖霞区","118.817182,32.146763","兴趣点",118.81202958301,32.1488907234977,"燕子矶景区",118.817182,32.146763
"227","江苏省南京市江宁区锁石","南京市","江宁区","118.974593,32.067566","兴趣点",118.969430684842,32.0696762158048,"锁石生态旅游村",118.974593,32.067566
"228","江苏省南京市江宁区江宁","南京市","江宁区","118.614272,31.868439","乡镇",118.609273910956,31.8706151338258,"江宁雁南飞景区",118.614272,31.868439
"229","江苏省南京市江宁区牛首山","南京市","江宁区","118.744427,31.912767","村庄",118.739215711388,31.9147716886539,"江宁牛首山唐明文化旅游区",118.744427,31.912767
"230","江苏省南京市六合区石柱林景区","南京市","六合区","118.937277,32.473744","兴趣点",118.932179400766,32.4759617205434,"桂子山石柱林景区",118.937277,32.473744
"231","江苏省南京市六合区瓜埠山景区","南京市","六合区","118.900270,32.251307","兴趣点",118.895229912332,32.2535596050958,"国家地质公园瓜埠山景区",118.90027,32.251307
"232","江苏省南京市六合区灵岩山","南京市","六合区","118.887511,32.306655","热点商圈",118.882462167485,32.3089071622868,"灵岩山旅游风景区",118.887511,32.306655
"233","江苏省南京市高淳区迎湖桃源景区","南京市","高淳区","118.895594,31.290397","兴趣点",118.890639536638,31.2926129638498,"迎湖桃源景区",118.895594,31.290397
"234","0","0","0","0","0",0,0,"银林生态农业园",0,0
"235","江苏省无锡市梁溪区吟苑公园","无锡市","梁溪区","120.279721,31.579726","兴趣点",120.275138235424,31.5816538105409,"吟苑公园",120.279721,31.579726
"236","江苏省无锡市新吴区泰伯庙","无锡市","新吴区","120.434883,31.542380","兴趣点",120.430228658825,31.5441635260757,"梅村泰伯庙",120.434883,31.54238
"237","江苏省无锡市滨湖区九龙湾乡村家园","无锡市","滨湖区","120.165501,31.558169","兴趣点",120.160726853684,31.5600099295867,"九龙湾乡村家园",120.165501,31.558169
"238","江苏省无锡市梁溪区无锡碑刻陈列馆","无锡市","梁溪区","120.299669,31.570832","兴趣点",120.295069559365,31.5727331678573,"碑刻陈列馆",120.299669,31.570832
"239","0","0","0","0","0",0,0,"钱钟书纪念馆",0,0
"240","江苏省无锡市梁溪区顾毓L纪念馆","无锡市","梁溪区","120.302256,31.570011","兴趣点",120.297653507545,31.5719079917629,"顾毓L纪念馆",120.302256,31.570011
"241","0","0","0","0","0",0,0,"天蓝地绿生态旅游农庄",0,0
"242","江苏省无锡市梁溪区佛教文化园","无锡市","梁溪区","120.331847,31.527203","兴趣点",120.327204818096,31.5290494726017,"永兴寺佛教文化园",120.331847,31.527203
"243","江苏省无锡市滨湖区帅元紫砂博物馆","无锡市","滨湖区","120.071250,31.414750","兴趣点",120.066334761573,31.4165536922221,"帅元紫砂博物馆",120.07125,31.41475
"244","江苏省无锡市惠山区吴文化公园","无锡市","惠山区","120.292501,31.683002","兴趣点",120.287899592013,31.6849142111931,"吴文化公园",120.292501,31.683002
"245","江苏省无锡市宜兴市龙池山风景区","无锡市","宜兴市","119.696578,31.215135","兴趣点",119.691621516629,31.2172370807706,"宜兴龙池山风景区",119.696578,31.215135
"246","江苏省无锡市江阴市徐霞客故居","无锡市","江阴市","120.323206,31.709883","兴趣点",120.318561479325,31.7117441457335,"江阴市徐霞客故居",120.323206,31.709883
"247","江苏省无锡市江阴市","无锡市","江阴市","120.284939,31.920658","区县",120.280323396206,31.9226177169311,"江阴市渡江战役纪念馆",120.284939,31.920658
"248","江苏省无锡市江阴市泰清寺","无锡市","江阴市","120.423120,31.849043","兴趣点",120.418416318792,31.8508326643629,"江阴市泰清寺",120.42312,31.849043
"249","江苏省无锡市江阴市季子文化公园","无锡市","江阴市","120.142370,31.882590","兴趣点",120.137500230724,31.8844190247772,"江阴市季子文化公园",120.14237,31.88259
"250","江苏省徐州市邳州市小萝卜","徐州市","邳州市","117.879989,34.178857","村庄",117.874499008373,34.1803417146613,"邳州市小萝卜头纪念馆",117.879989,34.178857
"251","江苏省徐州市沛县泗水亭公园","徐州市","沛县","116.922672,34.732652","兴趣点",116.91729430331,34.7337947384635,"沛县泗水亭公园",116.922672,34.732652
"252","江苏省徐州市沛县","徐州市","沛县","116.937532,34.721656","区县",116.932124395264,34.722790664388,"沛县滨河公园",116.937532,34.721656
"253","江苏省徐州市睢宁县云河公园","徐州市","睢宁县","117.941557,33.911284","兴趣点",117.936091911077,33.91281065015,"睢宁县云河公园",117.941557,33.911284
"254","江苏省徐州市铜山区楚河景区","徐州市","铜山区","117.182240,34.172389","兴趣点",117.176471386588,34.1736384757779,"铜山楚河景区",117.18224,34.172389
"255","江苏省徐州市铜山区铜山","徐州市","铜山区","117.184160,34.193593","兴趣点",117.178392519077,34.1948389904179,"铜山城市规划展示馆",117.18416,34.193593
"256","江苏省徐州市贾汪区夏桥公园","徐州市","贾汪区","117.446241,34.424687","兴趣点",117.440273599037,34.4257504232169,"夏桥公园",117.446241,34.424687
"257","江苏省徐州市丰县永宁寺","徐州市","丰县","116.586984,34.703899","村庄",116.581763117666,34.7050824803227,"丰县永宁寺",116.586984,34.703899
"258","0","0","0","0","0",0,0,"农润观光园",0,0
"259","江苏省徐州市沛县","徐州市","沛县","116.937532,34.721656","区县",116.932124395264,34.722790664388,"沛县昭阳庄园",116.937532,34.721656
"260","江苏省徐州市睢宁县","徐州市","睢宁县","117.941563,33.912598","区县",117.936097770758,33.9141243522483,"睢宁县山景区",117.941563,33.912598
"261","江苏省徐州市丰县丰县文庙","徐州市","丰县","116.594911,34.700454","兴趣点",116.589691555455,34.7016430869715,"丰县文庙景区",116.594911,34.700454
"262","江苏省徐州市沛县","徐州市","沛县","116.937532,34.721656","区县",116.932124395264,34.722790664388,"沛县大风歌景区",116.937532,34.721656
"263","江苏省徐州市沛县张庄镇","徐州市","沛县","117.009332,34.523718","乡镇",117.003678846604,34.5248365296737,"沛县张庄镇汉韵景区",117.009332,34.523718
"264","江苏省徐州市鼓楼区古陶博物馆","徐州市","鼓楼区","117.125917,34.301504","兴趣点",117.120050764714,34.3026107766475,"古陶博物馆",117.125917,34.301504
"265","0","0","0","0","0",0,0,"喻继高艺术之家",0,0
"266","江苏省徐州市丰县华强生态园","徐州市","丰县","116.730066,34.638244","兴趣点",116.724592424371,34.6393102790935,"丰县华强生态园",116.730066,34.638244
"267","江苏省徐州市睢宁县","徐州市","睢宁县","117.941563,33.912598","区县",117.936097770758,33.9141243522483,"睢宁县张良殿景区",117.941563,33.912598
"268","江苏省徐州市泉山区汉纳国际欢乐谷","徐州市","泉山区","117.167147,34.262700","兴趣点",117.161342371723,34.2638884994532,"汉纳国际欢乐谷",117.167147,34.2627
"269","江苏省徐州市贾汪区马庄","徐州市","贾汪区","117.362890,34.377274","村庄",117.356930898034,34.3783531967565,"贾汪马庄民俗文化馆",117.36289,34.377274
"270","江苏省徐州市铜山区羊山","徐州市","铜山区","117.670658,34.104379","乡镇",117.665014462803,34.1058112431168,"睢宁县羊山弥陀寺景区",117.670658,34.104379
"271","江苏省常州市天宁区东坡公园","常州市","天宁区","119.977350,31.766836","兴趣点",119.972595957273,31.7688607582945,"东坡公园",119.97735,31.766836
"272","江苏省常州市钟楼区荆川公园","常州市","钟楼区","119.924791,31.766930","兴趣点",119.920115155211,31.769062299854,"荆川公园",119.924791,31.76693
"273","江苏省常州市天宁区张太雷纪念馆","常州市","天宁区","119.962386,31.763525","兴趣点",119.957665245101,31.7655891283616,"张太雷纪念馆",119.962386,31.763525
"274","江苏省常州市武进区白龙观","常州市","武进区","120.108476,31.770028","热点商圈",120.103545495584,31.7718015974367,"武进横山白龙观",120.108476,31.770028
"275","江苏省常州市溧阳市高静园","常州市","溧阳市","119.493832,31.426192","兴趣点",119.488663619382,31.4281520988337,"溧阳市高静园",119.493832,31.426192
"276","江苏省常州市溧阳市凤凰公园","常州市","溧阳市","119.482545,31.437219","兴趣点",119.477332066921,31.4391432500227,"溧阳市凤凰公园",119.482545,31.437219
"277","江苏省常州市天宁区戈小兴中外烟标烟具博物馆","常州市","天宁区","119.971512,31.772186","兴趣点",119.966771088717,31.7742276761294,"戈小兴中外烟标烟具博物馆",119.971512,31.772186
"278","江苏省常州市武进区三勤农业生态园","常州市","武进区","119.993520,31.681440","兴趣点",119.988732581467,31.683408533111,"三勤农业生态园",119.99352,31.68144
"279","江苏省常州市钟楼区梳篦博物馆","常州市","钟楼区","119.937105,31.781321","兴趣点",119.932420241066,31.7834393492576,"梳篦博物馆",119.937105,31.781321
"280","江苏省常州市天宁区江南美术馆","常州市","天宁区","119.972988,31.777828","兴趣点",119.968243231842,31.7798664781789,"江南美术馆",119.972988,31.777828
"281","江苏省常州市钟楼区邹区","常州市","钟楼区","119.845370,31.792183","乡镇",119.840567946618,31.7942730574282,"武进邹区中国灯具城",119.84537,31.792183
"282","0","0","0","0","0",0,0,"柳亚子故居",0,0
"283","0","0","0","0","0",0,0,"王锡阐故居纪念馆",0,0
"284","江苏省苏州市张家港市保意电器张家港公园","苏州市","张家港市","120.529227,31.861647","兴趣点",120.524872885725,31.8636976110407,"张家港市张家港公园",120.529227,31.861647
"285","江苏省苏州市太仓市张溥故居","苏州市","太仓市","121.101382,31.444776","兴趣点",121.096746350643,31.4465412996461,"太仓市张溥故居",121.101382,31.444776
"286","江苏省南通市崇川区沈寿艺术馆","南通市","崇川区","120.864416,32.012948","兴趣点",120.860169293282,32.015098955336,"沈寿艺术馆",120.864416,32.012948
"287","江苏省南通市启东市","南通市","启东市","121.657441,31.808026","区县",121.653130116841,31.8100857152632,"启东市盈康江海生态休闲园",121.657441,31.808026
"288","江苏省南通市港闸区港闸区普贤寺","南通市","港闸区","120.832768,32.066630","兴趣点",120.828456039207,32.0687395199925,"峨嵋山普贤寺",120.832768,32.06663
"289","江苏省南通市通州区通州","南通市","通州区","121.073948,32.064231","兴趣点",121.069277633163,32.0660609310093,"通州石港生态旅游风景区（渔湾水乡）",121.073948,32.064231
"290","江苏省南通市海门市江渔村","南通市","海门市","121.275287,31.886270","村庄",121.270788101072,31.8882173425149,"海门市沿江渔村",121.275287,31.88627
"291","江苏省南通市通州区香光寺","南通市","通州区","121.209257,32.026010","兴趣点",121.204733558129,32.0279717472212,"通州区香光寺",121.209257,32.02601
"292","江苏省南通市海安县","南通市","海安县","120.467370,32.533549","区县",120.462722598262,32.5354781871145,"海安县新四军联抗纪念馆",120.46737,32.533549
"293","江苏省南通市海安县角斜","南通市","海安县","120.792123,32.569300","乡镇",120.787685668045,32.5713396100618,"海安县角斜红旗民兵团史绩陈列馆",120.792123,32.5693
"294","江苏省南通市如东县如东","南通市","如东县","121.189870,32.346320","兴趣点",121.185284891989,32.3482948278289,"如东市浅水湾水上公园",121.18987,32.34632
"295","江苏省南通市海安县壮志蓉和怡心园","南通市","海安县","120.620468,32.491880","兴趣点",120.616191151672,32.4940845271903,"海安县蓉和怡心园",120.620468,32.49188
"296","江苏省南通市海安县观音禅寺","南通市","海安县","120.396578,32.433057","兴趣点",120.391797041603,32.4349153954683,"海安县观音禅寺",120.396578,32.433057
"297","江苏省南通市海安县镇海禅寺","南通市","海安县","120.690487,32.579472","兴趣点",120.686077986366,32.5815380580711,"海安县镇海禅寺",120.690487,32.579472
"298","江苏省南通市海安县凤山书院","南通市","海安县","120.462140,32.556614","兴趣点",120.457472601399,32.5585238551305,"海安县凤山书院",120.46214,32.556614
"299","江苏省南通市海安县如来寺","南通市","海安县","120.847179,32.591767","村庄",120.842852234056,32.593896329416,"海安县如来寺",120.847179,32.591767
"300","江苏省南通市如东县马塘","南通市","如东县","121.044366,32.316846","村庄",121.039737354738,32.3187613919208,"马塘革命烈士纪念馆",121.044366,32.316846
"301","江苏省南通市启东市紫薇公园","南通市","启东市","121.674270,31.818589","兴趣点",121.669925615508,31.8206186957234,"启东市紫薇公园",121.67427,31.818589
"302","江苏省连云港市海州区陇海","连云港市","海州区","119.189532,34.606625","热点商圈",119.18394239044,34.6076056018257,"陇海商务文化旅游景区",119.189532,34.606625
"303","江苏省连云港市海州区新浦公园","连云港市","海州区","119.173659,34.597545","兴趣点",119.16803484782,34.5985040823066,"新浦公园",119.173659,34.597545
"304","0","0","0","0","0",0,0,"青龙山革命烈士陵园",0,0
"305","江苏省连云港市连云区生态公园","连云港市","连云区","119.370796,34.747370","兴趣点",119.365086189844,34.7481132412474,"北固山生态公园",119.370796,34.74737
"306","江苏省连云港市连云区海鲜美食","连云港市","连云区","119.371596,34.749402","兴趣点",119.365885008038,34.7501422408915,"海鲜美食文化旅游景区",119.371596,34.749402
"307","江苏省连云港市赣榆区罗阳","连云港市","赣榆区","119.090034,34.680918","乡镇",119.084292925902,34.6817120703624,"赣榆县罗阳湿地休闲度假区",119.090034,34.680918
"308","江苏省连云港市赣榆区秦山岛","连云港市","赣榆区","119.281996,34.868570","热点商圈",119.276435632665,34.8693342805823,"秦山岛旅游度假区",119.281996,34.86857
"309","江苏省连云港市赣榆区青口生态公园","连云港市","赣榆区","119.108084,34.839015","兴趣点",119.102325701604,34.8396502890426,"青口生态公园",119.108084,34.839015
"310","江苏省连云港市赣榆区小塔山","连云港市","赣榆区","119.013632,34.920414","村庄",119.008046607023,34.9211041242411,"小塔山水利风景区",119.013632,34.920414
"311","江苏省连云港市海州区凤凰山","连云港市","海州区","119.228430,34.570913","兴趣点",119.222908723379,34.5719749931476,"凤凰山景区",119.22843,34.570913
"312","江苏省连云港市海州区水生花卉园","连云港市","海州区","119.314613,34.571108","兴趣点",119.309027371694,34.572108107918,"云台水生花卉园",119.314613,34.571108
"313","江苏省连云港市东海县安峰山烈士陵园","连云港市","东海县","118.752685,34.370786","兴趣点",118.74723515641,34.3719989764686,"安峰山烈士陵园",118.752685,34.370786
"314","江苏省连云港市灌云县伊山风景区","连云港市","灌云县","119.238930,34.313558","兴趣点",119.233443419159,34.3147886161718,"伊芦山风景区",119.23893,34.313558
"315","江苏省连云港市灌南县海西公园","连云港市","灌南县","119.336729,34.086496","兴趣点",119.331147177055,34.0876969250262,"灌南县海西公园",119.336729,34.086496
"316","0","0","0","0","0",0,0,"勺湖园风景区",0,0
"317","江苏省淮安市淮阴区樱花园","淮安市","淮阴区","119.040207,33.611527","兴趣点",119.034666627956,33.6128540986628,"樱花园",119.040207,33.611527
"318","江苏省淮安市清江浦区桃花坞公园","淮安市","清江浦区","119.001162,33.615993","乡镇",118.995756080684,33.6174282889035,"桃花坞公园",119.001162,33.615993
"319","江苏省淮安市清江浦区楚秀园","淮安市","清江浦区","119.036175,33.586319","兴趣点",119.03064933443,33.5876655647762,"楚秀园",119.036175,33.586319
"320","江苏省淮安市金湖县白马湖","淮安市","金湖县","119.140960,33.162501","乡镇",119.135413430243,33.1640385012761,"金湖县白马湖生态旅游区",119.14096,33.162501
"321","江苏省淮安市盱眙县三河","淮安市","盱眙县","118.758467,33.072144","乡镇",118.75314665668,33.0739020277052,"洪泽县三河闸水利风景区",118.758467,33.072144
"322","江苏省淮安市洪泽区老子山","淮安市","洪泽区","118.595664,33.183732","乡镇",118.590550371922,33.1855979147931,"洪泽县老子山风景区",118.595664,33.183732
"323","0","0","0","0","0",0,0,"洪泽县渔家乐园",0,0
"324","江苏省淮安市盱眙县大胡庄","淮安市","盱眙县","118.615044,33.018961","村庄",118.609940028838,33.0209365675535,"大胡庄战斗纪念园",118.615044,33.018961
"325","江苏省淮安市金湖县新安","淮安市","金湖县","118.849822,33.013668","乡镇",118.844656804068,33.0155986205851,"新安旅行团历史纪念馆",118.849822,33.013668
"326","江苏省淮安市金湖县大佛寺","淮安市","金湖县","119.025480,33.026051","兴趣点",119.020044544472,33.0277611867922,"金湖县大佛寺",119.02548,33.026051
"327","江苏省淮安市金湖县","淮安市","金湖县","119.020585,33.025433","区县",119.015166435177,33.027157422148,"金湖县柳树湾湿地公园",119.020585,33.025433
"328","江苏省淮安市金湖县尧帝公园","淮安市","金湖县","118.990329,33.019309","兴趣点",118.985021498142,33.0211283242492,"金湖县尧帝公园",118.990329,33.019309
"329","江苏省淮安市金湖县","淮安市","金湖县","119.020585,33.025433","区县",119.015166435177,33.027157422148,"金湖县水上森林",119.020585,33.025433
"330","江苏省淮安市淮阴区蒋坝老街","淮安市","淮阴区","118.937965,33.585110","道路",118.932761006496,33.5867178881493,"蒋坝老街",118.937965,33.58511
"331","0","0","0","0","0",0,0,"南水北调洪泽水利枢纽景区",0,0
"332","江苏省盐城市亭湖区通榆河","盐城市","亭湖区","120.139717,33.428037","热点商圈",120.134697206922,33.4293896270423,"通榆河枢纽国家水利风景区",120.139717,33.428037
"333","江苏省盐城市亭湖区枯枝牡丹园","盐城市","亭湖区","120.268146,33.254493","兴趣点",120.263417960027,33.2560921365672,"亭湖便仓枯枝牡丹园",120.268146,33.254493
"334","江苏省盐城市东台市黄逸峰故居","盐城市","东台市","120.308801,32.847810","兴趣点",120.304076811762,32.8496350476954,"东台市黄逸峰故居",120.308801,32.84781
"335","江苏省盐城市大丰区施耐庵公园","盐城市","大丰区","120.467702,33.205487","兴趣点",120.462995027886,33.2070288860615,"大丰施耐庵公园",120.467702,33.205487
"336","江苏省盐城市东台市九莲寺","盐城市","东台市","120.789251,32.691747","村庄",120.784798322078,32.6937356538289,"东台市新街九莲寺",120.789251,32.691747
"337","江苏省盐城市建湖县陆秀夫纪念馆","盐城市","建湖县","119.739454,33.493614","兴趣点",119.734261949971,33.495093558027,"建湖县陆秀夫纪念馆",119.739454,33.493614
"338","江苏省盐城市射阳县工委纪念馆","盐城市","射阳县","120.225708,33.765799","兴趣点",120.220894441033,33.7671592836296,"射阳县华中工委纪念馆",120.225708,33.765799
"339","江苏省盐城市建湖县延寿寺","盐城市","建湖县","119.708958,33.367381","兴趣点",119.703789002527,33.3689557830084,"建湖县延寿寺",119.708958,33.367381
"340","江苏省盐城市东台市龙王古寺","盐城市","东台市","120.854938,32.743978","兴趣点",120.85061293657,32.7460547471956,"东台市龙王古寺",120.854938,32.743978
"341","江苏省盐城市阜宁县桃花源","盐城市","阜宁县","119.590464,33.860896","兴趣点",119.585353636423,33.8624388417198,"阜宁县桃花源生态农庄",119.590464,33.860896
"342","江苏省盐城市大丰区银杏湖公园","盐城市","大丰区","120.453480,33.185164","兴趣点",120.448727780127,33.1866859968311,"大丰银杏湖公园",120.45348,33.185164
"343","江苏省盐城市大丰区姜尚公园","盐城市","大丰区","120.668195,33.054359","兴趣点",120.663790907202,33.0561979690888,"大丰姜尚公园",120.668195,33.054359
"344","江苏省盐城市东台市通海湖公园","盐城市","东台市","120.838690,32.765611","兴趣点",120.834330661568,32.7676479945327,"东台市通海湖公园",120.83869,32.765611
"345","江苏省盐城市东台市文化展示馆","盐城市","东台市","120.845670,32.745460","兴趣点",120.841326908455,32.747520336708,"东台市港文化展示馆",120.84567,32.74546
"346","江苏省盐城市盐都区三胡陈列馆","盐城市","盐都区","119.990129,33.346667","兴趣点",119.985198902814,33.3482487027819,"盐都鞍湖三胡陈列馆",119.990129,33.346667
"347","江苏省盐城市射阳县","盐城市","射阳县","120.258053,33.774806","区县",120.253275168705,33.7761731265029,"射阳县农建四师暨淮海农场陈列馆",120.258053,33.774806
"348","江苏省盐城市大丰区净土院","盐城市","大丰区","120.295870,33.131700","兴趣点",120.291136189716,33.1333517758206,"大丰刘庄净土院",120.29587,33.1317
"349","江苏省盐城市盐都区大云山寺","盐城市","盐都区","120.105699,33.184295","兴趣点",120.100633827243,33.1857666464357,"大云山寺",120.105699,33.184295
"350","江苏省盐城市滨海县南湖公园","盐城市","滨海县","119.826741,33.995751","兴趣点",119.821677856889,33.9971675335352,"滨海县南湖公园",119.826741,33.995751
"351","江苏省盐城市阜宁县马家荡","盐城市","阜宁县","119.617140,33.494949","村庄",119.61207277301,33.4966052149753,"阜宁县马家荡旅游景区",119.61714,33.494949
"352","0","0","0","0","0",0,0,"江都邵伯湖旅游区",0,0
"353","江苏省扬州市广陵区朱自清故居","扬州市","广陵区","119.449462,32.393668","兴趣点",119.444048951885,32.3955940430095,"朱自清故居",119.449462,32.393668
"354","江苏省扬州市宝应县周恩来少年读书处","扬州市","宝应县","119.307880,33.233190","兴趣点",119.302443521031,33.2347686085649,"宝应县周恩来少年读书处",119.30788,33.23319
"355","江苏省扬州市宝应县宝应博物馆","扬州市","宝应县","119.336403,33.238975","兴趣点",119.3309075325,33.2404962534558,"宝应县博物馆",119.336403,33.238975
"356","江苏省扬州市宝应县","扬州市","宝应县","119.360729,33.240392","区县",119.355188601696,33.2418701556458,"宝应县荷园生态旅游区",119.360729,33.240392
"357","江苏省扬州市宝应县柳堡","扬州市","宝应县","119.588738,33.132817","村庄",119.583695485931,33.1347001671216,"宝应县柳堡二妹子模范民兵活动中心",119.588738,33.132817
"358","江苏省扬州市江都区龙川盆景艺苑","扬州市","江都区","119.649168,32.420104","兴趣点",119.644172321828,32.4222960313744,"江都龙川盆景艺苑",119.649168,32.420104
"359","江苏省扬州市宝应县","扬州市","宝应县","119.360729,33.240392","区县",119.355188601696,33.2418701556458,"宝应县革命烈士纪念馆",119.360729,33.240392
"360","江苏省扬州市邗江区隋炀帝陵","扬州市","邗江区","119.428111,32.462383","兴趣点",119.422643621148,32.4642673709835,"隋炀帝陵",119.428111,32.462383
"361","0","0","0","0","0",0,0,"玉文化景区",0,0
"362","江苏省扬州市江都区江都仙女公园","扬州市","江都区","119.553560,32.428657","兴趣点",119.548514927208,32.4308553005424,"江都仙女公园",119.55356,32.428657
"363","江苏省扬州市高邮市","扬州市","高邮市","119.459161,32.781659","区县",119.453739036642,32.7834812248798,"高邮市古清真寺景区",119.459161,32.781659
"364","江苏省扬州市江都区山水园","扬州市","江都区","119.626521,32.447241","兴趣点",119.621546926107,32.4494627126985,"山水园",119.626521,32.447241
"365","江苏省镇江市润州区镇江民间文化艺术馆","镇江市","润州区","119.432568,32.215367","兴趣点",119.427132516449,32.2172577879623,"民间文化艺术馆",119.432568,32.215367
"366","江苏省镇江市丹阳市","镇江市","丹阳市","119.606536,32.010117","区县",119.601607530002,32.0123134569333,"丹阳市九里风景区",119.606536,32.010117
"367","江苏省镇江市丹徒区冷y纪念馆","镇江市","丹徒区","119.622940,32.092379","兴趣点",119.618000535945,32.0945820143722,"冷y纪念馆",119.62294,32.092379
"368","江苏省镇江市丹阳市万善公园","镇江市","丹阳市","119.587541,31.980949","兴趣点",119.5826033674,31.9831382191844,"丹阳市万善公园",119.587541,31.980949
"369","江苏省镇江市扬中市江馨怡度假村","镇江市","扬中市","119.906187,32.017989","兴趣点",119.901485897659,32.0201838015961,"扬中市江馨怡度假村",119.906187,32.017989
"370","江苏省镇江市丹阳市嘉山旅游风景区","镇江市","丹阳市","119.757315,32.036798","兴趣点",119.75227272732,32.0388156603153,"丹阳市嘉山旅游风景区",119.757315,32.036798
"371","江苏省镇江市丹徒区世业洲","镇江市","丹徒区","119.372516,32.219650","热点商圈",119.367059869889,32.2215393027649,"世业洲旅游度假区",119.372516,32.21965
"372","江苏省镇江市京口区银山公园","镇江市","京口区","119.676725,32.171626","兴趣点",119.671710572019,32.1737559057385,"新区银山公园",119.676725,32.171626
"373","江苏省镇江市润州区润州道院","镇江市","润州区","119.397655,32.179186","兴趣点",119.392188634966,32.181051750663,"润州道院",119.397655,32.179186
"374","江苏省镇江市丹阳市九曲河","镇江市","丹阳市","119.768912,32.043652","村庄",119.763884790591,32.045676715612,"丹阳市九曲河枢纽风景区",119.768912,32.043652
"375","0","0","0","0","0",0,0,"新四军四县抗敌总会纪念馆",0,0
"376","0","0","0","0","0",0,0,"赛珍珠文化园",0,0
"377","江苏省镇江市丹阳市","镇江市","丹阳市","119.606536,32.010117","区县",119.601607530002,32.0123134569333,"丹阳市上海战役总前委旧址纪念馆",119.606536,32.010117
"378","江苏省镇江市丹徒区凤凰山庄","镇江市","丹徒区","119.272206,32.133351","兴趣点",119.266927455304,32.1353862583732,"凤凰山庄旅游区",119.272206,32.133351
"379","江苏省镇江市京口区伯先故居","镇江市","京口区","119.664840,32.190785","兴趣点",119.659842309104,32.1929405930631,"赵伯先故居",119.66484,32.190785
"380","江苏省镇江市京口区古城公园","镇江市","京口区","119.472791,32.211599","兴趣点",119.467469937823,32.2135735165801,"古城公园旅游区",119.472791,32.211599
"381","江苏省镇江市丹阳市水晶山","镇江市","丹阳市","119.682545,32.074023","村庄",119.677530646968,32.0761231729606,"丹阳市水晶山公园",119.682545,32.074023
"382","0","0","0","0","0",0,0,"江大源生态生物科技园",0,0
"383","江苏省镇江市润州区跑马山公园","镇江市","润州区","119.423495,32.201580","兴趣点",119.418045580405,32.2034585433724,"跑马山公园",119.423495,32.20158
"384","江苏省泰州市泰兴市泰兴公园","泰州市","泰兴市","120.029674,32.179901","兴趣点",120.024750375383,32.1818555316728,"泰兴公园",120.029674,32.179901
"385","江苏省泰州市泰兴市泰兴","泰州市","泰兴市","119.949762,32.127029","兴趣点",119.945031346562,32.1291965635842,"中共江浙泰兴独立支部纪念馆",119.949762,32.127029
"386","江苏省泰州市靖江市岳王庙","泰州市","靖江市","120.169993,32.030844","兴趣点",120.165190584989,32.0327550366636,"靖江市生祠镇岳王庙・刘国钧故居",120.169993,32.030844
"387","江苏省泰州市姜堰区河横村","泰州市","姜堰区","120.139497,32.603008","村庄",120.134554046587,32.6048640469227,"姜堰市河横村",120.139497,32.603008
"388","江苏省泰州市靖江市靖江人民公园","泰州市","靖江市","120.271566,32.019283","兴趣点",120.266948130998,32.0212789640897,"靖江市人民公园",120.271566,32.019283
"389","江苏省泰州市姜堰区人民公园","泰州市","姜堰区","120.156157,32.502339","兴趣点",120.151270107689,32.5042507066568,"姜堰市人民公园",120.156157,32.502339
"390","江苏省泰州市兴化市板桥竹石园","泰州市","兴化市","119.839937,32.919970","兴趣点",119.835016650248,32.9219311359143,"兴化市板桥竹石园",119.839937,32.91997
"391","江苏省泰州市兴化市森林公园","泰州市","兴化市","119.844489,32.953584","兴趣点",119.839579235481,32.9555306219788,"兴化市森林公园",119.844489,32.953584
"392","江苏省泰州市泰兴市杨根思烈士陵园","泰州市","泰兴市","120.016196,32.251578","兴趣点",120.011298180841,32.2535796063454,"烈士陵园",120.016196,32.251578
"393","江苏省泰州市兴化市晨秀园","泰州市","兴化市","120.170482,32.749794","兴趣点",120.165615911077,32.7516392722877,"兴化市张郭晨秀园",120.170482,32.749794
"394","江苏省泰州市兴化市板桥林园","泰州市","兴化市","120.056272,32.921580","兴趣点",120.051232128142,32.9232735096832,"兴化市郑板桥林园",120.056272,32.92158
"395","江苏省泰州市姜堰区古千佛寺","泰州市","姜堰区","120.143699,32.373684","兴趣点",120.138788327678,32.3755907504461,"姜堰市古千佛寺",120.143699,32.373684
"396","江苏省泰州市姜堰区烟墨公园","泰州市","姜堰区","120.223630,32.558285","兴趣点",120.218923382654,32.5602923368568,"姜堰市娄庄烟墨公园",120.22363,32.558285
"397","江苏省泰州市海陵区范家花园","泰州市","海陵区","119.915128,32.490101","村庄",119.910388827214,32.4923239423741,"范家花园",119.915128,32.490101
"398","江苏省泰州市泰兴市","泰州市","泰兴市","120.051744,32.171854","区县",120.046779812503,32.1737550397696,"泰兴市森萱风景区",120.051744,32.171854
"399","0","0","0","0","0",0,0,"姜堰市法华寺",0,0
"400","江苏省泰州市海陵区泰和堂国医馆","泰州市","海陵区","119.917800,32.496935","兴趣点",119.913060548146,32.4991548141714,"中医院泰和堂国医馆",119.9178,32.496935
"401","江苏省宿迁市泗阳县泗水公园","宿迁市","泗阳县","118.680500,33.704160","兴趣点",118.675212215917,33.7056529951556,"泗阳县泗水公园",118.6805,33.70416
"402","江苏省宿迁市泗阳县城市森林公园","宿迁市","泗阳县","118.703234,33.718707","兴趣点",118.697897483944,33.7201559887237,"泗阳县城市森林公园",118.703234,33.718707
"403","江苏省宿迁市泗洪县泗洪县烈士陵园","宿迁市","泗洪县","118.209629,33.450412","兴趣点",118.204124794093,33.4519071961739,"泗洪烈士陵园",118.209629,33.450412
"404","江苏省宿迁市泗洪县雪枫墓园","宿迁市","泗洪县","118.403656,33.353630","兴趣点",118.398049571741,33.3550194846209,"泗洪县雪枫墓园",118.403656,33.35363
"405","江苏省宿迁市泗洪县朱家岗烈士陵园","宿迁市","泗洪县","118.378150,33.579866","兴趣点",118.372527196574,33.5811559374621,"泗洪县朱家岗烈士陵园",118.37815,33.579866
"406","江苏省宿迁市泗洪县春到上塘纪念馆","宿迁市","泗洪县","118.045750,33.422995","兴趣点",118.040054623171,33.4244111902505,"泗洪县春到上塘纪念馆",118.04575,33.422995
"407","江苏省宿迁市沭阳县虞姬生态园","宿迁市","沭阳县","118.805623,34.114145","兴趣点",118.800258513451,34.1155111463852,"沭阳县虞姬生态园",118.805623,34.114145
"408","江苏省宿迁市沭阳县梦溪植物园","宿迁市","沭阳县","118.845165,34.095084","兴趣点",118.839886092144,34.0965276331088,"沭阳县梦溪植物园",118.845165,34.095084
"409","江苏省宿迁市沭阳县虞姬公园","宿迁市","沭阳县","118.778465,34.135616","兴趣点",118.773054983721,34.1369384748801,"沭阳县虞姬公园",118.778465,34.135616
"410","江苏省宿迁市沭阳县海宁皮革城","宿迁市","沭阳县","118.793278,34.100986","兴趣点",118.787892415511,34.1023364275856,"沭阳县海宁皮革城",118.793278,34.100986
"411","江苏省宿迁市沭阳县花木大世界","宿迁市","沭阳县","118.755554,34.158061","兴趣点",118.750126011484,34.1593627004234,"沭阳县花木大世界",118.755554,34.158061
"412","江苏省宿迁市沭阳县","宿迁市","沭阳县","118.804784,34.111022","区县",118.799418189734,34.1123876060664,"沭阳县花木景观生态旅游城",118.804784,34.111022
"413","江苏省宿迁市沭阳县","宿迁市","沭阳县","118.804784,34.111022","区县",118.799418189734,34.1123876060664,"沭阳县吴苓生革命烈士陵园",118.804784,34.111022
"414","江苏省宿迁市沭阳县","宿迁市","沭阳县","118.804784,34.111022","区县",118.799418189734,34.1123876060664,"沭阳县崇孝苑",118.804784,34.111022
"415","0","0","0","0","0",0,0,"淮海抗日根据地纪念馆",0,0
"416","江苏省宿迁市沭阳县贤官亭公园","宿迁市","沭阳县","118.773047,34.242737","兴趣点",118.767620519044,34.2440182597565,"沭阳县贤官亭公园",118.773047,34.242737
